OBJECT_NAME,OBJECT_ID,EPOCH,MEAN_MOTION,ECCENTRICITY,INCLINATION,RA_OF_ASC_NODE,ARG_OF_PERICENTER,MEAN_ANOMALY,EPHEMERIS_TYPE,CLASSIFICATION_TYPE,NORAD_CAT_ID,ELEMENT_SET_NO,REV_AT_EPOCH,BSTAR,MEAN_MOTION_DOT,MEAN_MOTION_DDOT
TYVAK-0173,2021-059P,2026-07-22T04:10:41.433024,14.81985503,.00071224,96.0066,270.8331,269.6597,90.3805,0,U,48892,999,27342,.15478557E-3,.1196E-4,0
MANDRAKE 2 ABLE,2021-059AE,2026-07-22T02:26:06.705600,15.56287480,.00043176,97.7034,35.5843,204.3486,155.7565,0,U,48907,999,28255,.33098399E-3,.23195E-3,0
MANDRAKE 2 BAKER,2021-059AF,2026-07-22T09:00:07.154784,15.61265279,.00033286,97.6997,39.0062,189.6645,170.4548,0,U,48908,999,28278,.35951204E-3,.30428E-3,0
PACE-1,2021-059AG,2026-07-22T02:34:36.413760,15.86629202,.00034417,97.6729,45.3679,166.6838,193.4524,0,U,48909,999,28332,.56002591E-3,.143209E-2,0
YAM-3,2021-059AN,2026-07-22T12:49:06.935520,15.49265825,.0004417,97.7000,32.8208,207.5060,152.5957,0,U,48915,999,28246,.21694423E-3,.11753E-3,0
FARADAY_PHOENIX,2021-059AX,2026-07-22T02:14:52.839168,15.89697728,.00055914,97.6756,45.2949,184.0763,176.0465,0,U,48924,999,28318,.11395198E-2,.333392E-2,.4303759E-4
DEMO8 (TENZING),2021-059CA,2026-07-22T00:58:35.441472,15.56226101,.00062295,97.7019,39.1468,204.1460,155.9502,0,U,48951,999,28272,.31622361E-3,.22112E-3,0
FENGYUN 3E,2021-062A,2026-07-22T13:49:31.565856,14.19906399,.00018949,98.7511,206.5910,26.8420,333.2854,0,U,49008,999,26160,.24338026E-4,.8E-7,0
ISS (NAUKA),2021-066A,2026-07-22T03:40:37.502112,15.49090344,.00068832,51.6313,127.0562,324.3803,35.6725,0,U,49044,999,57667,.16818085E-3,.8859E-4,0
STARLINK-3100,2021-082Q,2026-07-21T18:07:51.545280,14.98332612,.00032338,70.0008,316.4192,270.3549,89.7240,0,U,49144,999,26606,.26542861E-4,.224E-5,0
2021-091B,2021-091B,2026-07-22T15:22:53.673600,15.18707187,.00115316,97.4488,30.6799,278.4539,81.5388,0,U,49316,999,26436,.14831334E-3,.3013E-4,0
SDGSAT 1,2021-100A,2026-07-22T14:25:08.995584,15.19266416,.0010601,97.2616,249.1955,139.8986,220.3033,0,U,49387,999,26129,.24623523E-3,.5134E-4,0
TEIKYOSAT-4 (OORURI),2021-102B,2026-07-22T12:25:12.993600,15.09615983,.00124387,97.3662,231.6273,163.6921,196.4712,0,U,49396,999,25805,.78139753E-4,.1197E-4,0
Z-SAT,2021-102E,2026-07-22T14:05:22.066080,15.18500706,.00182088,97.3315,237.8374,120.6975,239.6057,0,U,49399,999,25881,.17675009E-3,.3594E-4,0
HIBARI,2021-102F,2026-07-22T09:44:17.858400,15.32385439,.00131485,97.3219,248.9187,79.2016,281.0705,0,U,49400,999,25958,.38569627E-3,.12021E-3,0
KOSEN-1,2021-102H,2026-07-22T01:37:18.085152,15.27283055,.00153912,97.3171,244.5534,86.1928,274.1071,0,U,49402,999,25934,.29923829E-3,.7953E-4,0
GLOBAL-14,2021-106A,2026-07-22T08:45:26.844192,15.52090272,.00185394,42.0040,81.7680,270.5008,89.3712,0,U,49469,999,26359,.44139014E-3,.27319E-3,0
GAOFEN-3 02,2021-109A,2026-07-22T13:41:22.983360,14.42211284,.0001515,98.4103,211.1656,221.6730,138.4345,0,U,49495,999,24541,.35323436E-4,.73E-6,0
GLOBAL-12,2021-115BA,2026-07-22T07:14:47.320512,15.55611551,.00030386,53.1931,235.4238,80.3887,279.7469,0,U,49772,999,26136,.42055949E-3,.28979E-3,0
GLOBAL-13,2021-115BB,2026-07-22T09:36:35.842176,15.47296842,.00002133,53.1960,247.0248,59.5408,300.5622,0,U,49773,999,26121,.39012644E-3,.19838E-3,0
GLOBAL-17,2021-120A,2026-07-22T00:07:50.529216,15.53958516,.0014021,41.9930,201.5349,143.7702,216.4095,0,U,49949,999,26031,.41419875E-3,.27346E-3,0
GLOBAL-16,2021-120B,2026-07-22T00:04:54.230016,15.51695997,.00118304,41.9932,205.9587,133.4799,226.7031,0,U,49950,999,26025,.40653575E-3,.24665E-3,0
XW-3 (CAS-9),2021-131B,2026-07-22T14:19:27.062400,14.41386162,.00040815,98.4980,295.7959,11.1128,349.0150,0,U,50466,999,24021,.10931456E-3,.31E-5,0
ION SCV-004,2022-002K,2026-07-22T12:53:54.760704,15.30758195,.00062641,97.2812,260.5347,215.1663,144.9166,0,U,50993,999,25070,.1701342E-3,.4984E-4,0
ETV-A1,2022-002CE,2026-07-22T14:20:28.226688,15.41344932,.00046787,97.2858,269.8134,195.0020,165.1089,0,U,51060,999,25129,.28685481E-3,.11888E-3,0
BRO-5,2022-002CF,2026-07-22T14:27:53.866656,15.49098061,.00061584,97.2974,277.6295,176.2851,183.8447,0,U,51061,999,25173,.25976946E-3,.14027E-3,0
LUDI TANCE 1-01A (L-SAR 01A),2022-007A,2026-07-22T14:38:00.336768,14.88414940,.00016263,97.8110,210.5275,91.0301,269.1102,0,U,51284,999,24374,.55622845E-4,.461E-5,0
LUDI TANCE 1-01B (L-SAR 01B),2022-018A,2026-07-22T15:26:23.523648,14.88420204,.00016215,97.8115,210.5593,91.2567,268.8836,0,U,51822,999,23898,.58979844E-4,.492E-5,0
