TYVAK-0173              
1 48892U 21059P   26203.17409066  .00001196  00000+0  15479-3 0  9999
2 48892  96.0066 270.8331 0007122 269.6597  90.3805 14.81985503273427
MANDRAKE 2 ABLE         
1 48907U 21059AE  26203.10146650  .00023195  00000+0  33098-3 0  9996
2 48907  97.7034  35.5843 0004317 204.3486 155.7565 15.56287480282552
MANDRAKE 2 BAKER        
1 48908U 21059AF  26203.37508281  .00030428  00000+0  35951-3 0  9995
2 48908  97.6997  39.0062 0003328 189.6645 170.4548 15.61265279282783
PACE-1                  
1 48909U 21059AG  26203.10736590  .00143209  00000+0  56003-3 0  9996
2 48909  97.6729  45.3679 0003441 166.6838 193.4524 15.86629202283323
YAM-3                   
1 48915U 21059AN  26203.53410805  .00011753  00000+0  21694-3 0  9994
2 48915  97.7000  32.8208 0004417 207.5060 152.5957 15.49265825282464
FARADAY_PHOENIX         
1 48924U 21059AX  26203.09366712  .00333392  43038-4  11395-2 0  9997
2 48924  97.6756  45.2949 0005591 184.0763 176.0465 15.89697728283184
DEMO8 (TENZING)         
1 48951U 21059CA  26203.04068798  .00022112  00000+0  31622-3 0  9993
2 48951  97.7019  39.1468 0006229 204.1460 155.9502 15.56226101282726
FENGYUN 3E              
1 49008U 21062A   26203.57605979  .00000008  00000+0  24338-4 0  9994
2 49008  98.7511 206.5910 0001894  26.8420 333.2854 14.19906399261605
ISS (NAUKA)             
1 49044U 21066A   26203.15321183  .00008859  00000+0  16818-3 0  9999
2 49044  51.6313 127.0562 0006883 324.3803  35.6725 15.49090344576671
STARLINK-3100           
1 49144U 21082Q   26202.75545770  .00000224  00000+0  26543-4 0  9998
2 49144  70.0008 316.4192 0003233 270.3549  89.7240 14.98332612266065
2021-091B               
1 49316U 21091B   26203.64089900  .00003013  00000+0  14831-3 0  9991
2 49316  97.4488  30.6799 0011531 278.4539  81.5388 15.18707187264367
SDGSAT 1                
1 49387U 21100A   26203.60079856  .00005134  00000+0  24624-3 0  9992
2 49387  97.2616 249.1955 0010601 139.8986 220.3033 15.19266416261295
TEIKYOSAT-4 (OORURI)    
1 49396U 21102B   26203.51751150  .00001197  00000+0  78140-4 0  9996
2 49396  97.3662 231.6273 0012438 163.6921 196.4712 15.09615983258053
Z-SAT                   
1 49399U 21102E   26203.58706095  .00003594  00000+0  17675-3 0  9992
2 49399  97.3315 237.8374 0018208 120.6975 239.6057 15.18500706258816
HIBARI                  
1 49400U 21102F   26203.40576225  .00012021  00000+0  38570-3 0  9998
2 49400  97.3219 248.9187 0013148  79.2016 281.0705 15.32385439259586
KOSEN-1                 
1 49402U 21102H   26203.06757043  .00007953  00000+0  29924-3 0  9992
2 49402  97.3171 244.5534 0015391  86.1928 274.1071 15.27283055259342
GLOBAL-14               
1 49469U 21106A   26203.36489403  .00027319  00000+0  44139-3 0  9997
2 49469  42.0040  81.7680 0018539 270.5008  89.3712 15.52090272263590
GAOFEN-3 02             
1 49495U 21109A   26203.57040490  .00000073  00000+0  35323-4 0  9995
2 49495  98.4103 211.1656 0001515 221.6730 138.4345 14.42211284245416
GLOBAL-12               
1 49772U 21115BA  26203.30193658  .00028979  00000+0  42056-3 0  9991
2 49772  53.1931 235.4238 0003038  80.3887 279.7469 15.55611551261365
GLOBAL-13               
1 49773U 21115BB  26203.40041484  .00019838  00000+0  39013-3 0  9995
2 49773  53.1960 247.0248 0000213  59.5408 300.5622 15.47296842261218
GLOBAL-17               
1 49949U 21120A   26203.00544594  .00027346  00000+0  41420-3 0  9990
2 49949  41.9930 201.5349 0014021 143.7702 216.4095 15.53958516260316
GLOBAL-16               
1 49950U 21120B   26203.00340544  .00024665  00000+0  40654-3 0  9990
2 49950  41.9932 205.9587 0011830 133.4799 226.7031 15.51695997260255
XW-3 (CAS-9)            
1 50466U 21131B   26203.59684100  .00000310  00000+0  10931-3 0  9995
2 50466  98.4980 295.7959 0004081  11.1128 349.0150 14.41386162240211
ION SCV-004             
1 50993U 22002K   26203.53743936  .00004984  00000+0  17013-3 0  9994
2 50993  97.2812 260.5347 0006264 215.1663 144.9166 15.30758195250705
ETV-A1                  
1 51060U 22002CE  26203.59754892  .00011888  00000+0  28685-3 0  9997
2 51060  97.2858 269.8134 0004678 195.0020 165.1089 15.41344932251293
BRO-5                   
1 51061U 22002CF  26203.60270679  .00014027  00000+0  25977-3 0  9995
2 51061  97.2974 277.6295 0006158 176.2851 183.8447 15.49098061251737
LUDI TANCE 1-01A (L-SA*)
1 51284U 22007A   26203.60972612  .00000461  00000+0  55623-4 0  9992
2 51284  97.8110 210.5275 0001626  91.0301 269.1102 14.88414940243743
LUDI TANCE 1-01B (L-SA*)
1 51822U 22018A   26203.64332782  .00000492  00000+0  58980-4 0  9997
2 51822  97.8115 210.5593 0001621  91.2567 268.8836 14.88420204238980
